ELYSIUM STAR 2 & LFF    
1 43760U 18099C   24217.60865762  .00077825  00000+0  25923-2 0  9994
2 43760  97.5134 285.6340 0006290 115.1002 245.0892 15.30795347310633
